77P/Longmore,e,24.3270,14.7487,196.6078,3.620101,0.1430945,0.35185659,126.5199,09/03.0/2025,2000,g  7.0,8.0
# From MPC186635
78P/Gehrels,e,6.2571,210.5008,192.7687,3.733299,0.1366359,0.46303205,319.6854,09/03.0/2025,2000,g  5.5,8.0
# From MPEC 2024-PC5
79P/duToit-Hartley,e,3.1488,280.5025,281.7533,2.942382,0.1952790,0.61939291,137.4090,09/03.0/2025,2000,g 16.0,4.0
# From MPEC 2024-Q20
80P/Peters-Hartley,e,29.9269,259.7724,339.2651,4.021420,0.1222179,0.59767814,122.2093,09/03.0/2025,2000,g  9.0,8.0
# From MPEC 2024-RQ6
81P/Wild,e,3.2384,136.1011,41.5463,3.451351,0.1537165,0.53772780,152.5044,09/03.0/2025,2000,g  7.0,6.0
# From MPC133426
82P/Gehrels,e,1.1294,239.2154,226.4539,4.132477,0.1173244,0.12298130,308.5241,09/03.0/2025,2000,g 15.0,4.0
# From NK 932
/Russell,e,17.8318,226.2955,334.3697,3.843186,0.1308178,0.44150872,204.7905,09/03.0/2025,2000,g  9.0,4.0
# From MPEC 2020-FB5
84P/Giclas,e,7.5530,108.1408,281.6849,3.550066,0.1473498,0.51567820,282.2530,09/03.0/2025,2000,g  9.5,8.0
# From unp
/Boethin,e,4.1724,65.3004,333.0903,5.046661,0.0869357,0.77579331,161.7590,09/03.0/2025,2000,g  6.5,8.0
# From MPEC 2022-YB4
86P/Wild,e,15.4913,72.0954,181.0409,3.649776,0.1413529,0.36161051,185.3063,09/03.0/2025,2000,g 11.0,6.0
# From MPEC 2020-SI8
87P/Bus,e,2.6643,184.6306,51.8161,4.369716,0.1079007,0.21459227,218.9492,09/03.0/2025,2000,g  7.2,10.0
# From MPC185663
88P/Howell,e,4.3820,56.6690,235.8774,3.108637,0.1798246,0.56324747,324.6136,09/03.0/2025,2000,g 11.0,6.0
# From MPC182887
89P/Russell,e,12.0701,41.3444,250.4444,3.751243,0.1356567,0.40737223,71.2753,09/03.0/2025,2000,g 11.5,6.0
# From MPEC 2022-K19
90P/Gehrels,e,9.6378,13.1800,29.1994,6.054555,0.0661578,0.51051227,198.0128,09/03.0/2025,2000,g  8.5,6.0
# From MPEC 2023-VM5
91P/Russell,e,16.0898,242.2707,357.1157,4.148587,0.1166417,0.25450676,226.1058,09/03.0/2025,2000,g  7.5,6.0
# From MPEC 2014-J58
92P/Sanguin,e,19.4772,181.3597,163.7760,5.344673,0.0797668,0.65999413,305.7240,09/03.0/2025,2000,g 12.0,6.0
# From MPC186635
93P/Lovas,e,12.2099,339.5496,75.0318,4.373546,0.1077590,0.61392889,333.9304,09/03.0/2025,2000,g  9.5,6.0
# From MPC186635
94P/Russell,e,6.1874,70.8456,92.3730,3.509853,0.1498893,0.36607393,125.2701,09/03.0/2025,2000,g  9.0,6.0
# From MPC182887
96P/Machholz,e,57.5894,93.9636,14.7373,3.031053,0.1867728,0.96171732,176.6131,09/03.0/2025,2000,g 13.0,4.8
# From MPC106348
96P-B/Machholz,e,57.5050,14.5619,94.0307,3.029990,0.1868711,0.96174805,176.7402,09/03.0/2025,2000,g 13.0,4.8
# From MPC103849
96P-C/Machholz,e,58.5311,94.3495,15.5380,3.011920,0.1885553,0.95889850,359.8715,07/14.0/2012,2000,g  9.0,4.0
# From MPEC 2024-GJ3
97P/Metcalf-Brewington,e,17.9362,184.0713,230.2110,4.770372,0.0945966,0.45986419,122.5089,09/03.0/2025,2000,g  5.5,6.0
# From MPEC 2021-W31
98P/Takamizawa,e,10.6928,114.4777,157.7754,3.776493,0.1342985,0.56911751,228.2865,09/03.0/2025,2000,g  9.0,8.0
# From MPEC 2024-R10
99P/Kowal,e,4.3392,28.0595,174.5191,6.093375,0.0655265,0.22882010,81.4536,09/03.0/2025,2000,g  4.5,6.0
# From MPC186635
100P/Hartley,e,25.5673,37.6857,181.9136,3.430321,0.1551322,0.41134565,173.7470,09/03.0/2025,2000,g  9.0,8.0
# From MPEC 2024-R10
101P/Chernykh,e,5.0485,116.1189,277.9947,5.818041,0.0702326,0.59547533,144.6885,09/03.0/2025,2000,g 10.0,4.8
# From MPC105241
101P-B/Chernykh,e,5.0503,278.5028,115.6144,5.833594,0.0699519,0.59568644,142.8674,09/03.0/2025,2000,g  9.0,4.0
# From MPEC 2022-C56
102P/Shoemaker,e,25.8521,339.3923,20.6735,3.820440,0.1319879,0.45590917,222.4926,09/03.0/2025,2000,g  6.5,8.0
# From MPC184417
103P/Hartley,e,13.6069,219.7582,181.3309,3.475844,0.1520946,0.69344653,105.1890,09/03.0/2025,2000,g  8.5,8.0
# From MPEC 2023-G31
104P/Kowal,e,5.7006,207.1781,227.3126,3.208598,0.1714869,0.66589506,227.9823,09/03.0/2025,2000,g 16.0,4.0
# From MPC186635
105P/SingerBrewster,e,9.1673,192.3914,46.3252,3.472941,0.1522853,0.40914728,34.0003,09/03.0/2025,2000,g 11.5,6.0
# From MPEC 2024-R10
106P/Schuster,e,19.5319,48.8661,353.7999,3.768446,0.1347289,0.59346236,198.8467,09/03.0/2025,2000,g 14.0,4.8
# From MPEC 2022-P82
108P/Ciffreo,e,11.4314,50.3014,354.5355,3.743972,0.1360521,0.55561719,197.7615,09/03.0/2025,2000,g  8.0,12.0
# From ICA 105, 420
109P/Swift-Tuttle,e,113.0559,139.7473,153.2863,26.20050,0.0073492,0.96293926,87.7821,09/03.0/2025,2000,g  4.0,6.0
# From MPEC 2023-KD6
110P/Hartley,e,11.7119,287.4819,167.5710,3.603487,0.1440853,0.31925121,203.7694,09/03.0/2025,2000,g  1.0,12.0
# From MPC 75718
111P/Helin-Roman-Crockett,e,4.2261,89.8101,1.4659,4.152968,0.1164571,0.10718002,178.8567,09/03.0/2025,2000,g  5.0,8.0
# From MPEC 2021-S45
112P/Urata-Niijima,e,24.2018,31.8084,21.5603,3.522165,0.1491041,0.59082447,302.7715,09/03.0/2025,2000,g 14.0,6.0
# From MPEC 2024-JU4
113P/Spitaler,e,5.2877,306.6160,115.7498,3.696282,0.1386936,0.41961243,164.9316,09/03.0/2025,2000,g 13.5,4.0
# From MPEC 2023-A50
114P/Wiseman-Skiff,e,18.3039,271.0264,172.8199,3.539587,0.1480046,0.55614923,304.2082,09/03.0/2025,2000,g 11.5,6.0
# From MPEC 2023-J29
115P/Maury,e,11.6844,175.9634,120.9195,4.270724,0.1116739,0.51808032,208.2172,09/03.0/2025,2000,g 10.5,6.0
# From MPEC 2024-RQ6
116P/Wild,e,3.6048,20.9589,173.1524,3.485742,0.1514472,0.37078927,173.2852,09/03.0/2025,2000,g  2.5,10.0
# From MPC182887
117P/Helin-Roman-Alu,e,8.6708,58.8066,224.8264,4.120694,0.1178280,0.25177273,135.4249,09/03.0/2025,2000,g  2.5,8.0
# From MPC186635
118P/Shoemaker-Levy,e,10.0921,142.0504,314.9609,3.348988,0.1608176,0.45381883,162.9359,09/03.0/2025,2000,g 12.0,4.0
# From MPEC 2024-R10
119P/Parker-Hartley,e,7.3930,104.5412,322.2819,3.809564,0.1325535,0.38805239,148.1368,09/03.0/2025,2000,g  3.5,8.0
# From MPEC 2022-CN4
120P/Mueller,e,8.4807,358.7004,36.7924,3.970167,0.1245922,0.37406339,196.7957,09/03.0/2025,2000,g 12.0,4.0
# From MPC185663
121P/Shoemaker-Holt,e,20.1622,94.1042,12.0019,4.589851,0.1002319,0.18671683,79.6912,09/03.0/2025,2000,g  6.5,8.0
# From MPC 75718
122P/de Vico,e,86.0234,79.7410,13.0063,17.63432,0.0133096,0.96262202,145.4309,09/03.0/2025,2000,g  7.5,5.2
# From MPC186635
123P/West-Hartley,e,15.2882,45.8811,103.9501,3.884758,0.1287236,0.44454988,310.5490,09/03.0/2025,2000,g  4.0,10.0
# From MPEC 2024-UQ8
124P/Mrkos,e,31.4020,359.9723,185.1094,3.377639,0.1587758,0.48641284,313.3834,09/03.0/2025,2000,g 13.5,2.8
# From MPEC 2024-UA9
125P/Spacewatch,e,9.9859,153.1503,87.1008,3.127590,0.1781925,0.51197312,97.0794,09/03.0/2025,2000,g 13.0,6.0
# From MPEC 2024-JU4
126P/IRAS,e,45.8716,357.8571,356.5568,5.626878,0.0738419,0.69596358,58.4114,09/03.0/2025,2000,g  6.0,8.0
# From MPEC 2024-R10
127P/Holt-Olmstead,e,14.2943,13.6164,6.3411,3.454608,0.1534991,0.35866121,171.9331,09/03.0/2025,2000,g 11.0,6.0
# From MPC 89014
128P/Shoemaker-Holt,e,4.3711,214.3192,210.5119,4.481780,0.1038791,0.32233958,327.0865,09/03.0/2025,2000,g  8.5,4.0
# From MPC185664
129P/Shoemaker-Levy,e,3.4413,184.8459,307.9171,4.294230,0.1107583,0.08596462,111.2205,09/03.0/2025,2000,g 11.0,4.0
# From MPC184417
130P/McNaught-Hughes,e,6.0532,70.1661,246.4568,3.391733,0.1577872,0.46125923,79.7519,09/03.0/2025,2000,g 10.0,6.0
# From MPC186635
131P/Mueller,e,7.3619,214.1345,179.2553,3.674442,0.1399320,0.34470346,336.8184,09/03.0/2025,2000,g 11.0,4.0
# From MPEC 2024-BE0
132P/Helin-Roman-Alu,e,5.3772,173.9746,216.5159,3.892656,0.1283320,0.56392809,178.3994,09/03.0/2025,2000,g 11.0,6.0
# From MPC 89012
134P/Kowal-Vavrova,e,4.3328,201.9873,18.6399,6.274848,0.0627046,0.58552184,260.4140,09/03.0/2025,2000,g 11.5,4.0
# From MPEC 2024-C04
135P/Shoemaker-Levy,e,6.0625,213.0188,22.3591,3.801813,0.1329591,0.29335958,165.6996,09/03.0/2025,2000,g  7.0,8.0
# From MPC186635
136P/Mueller,e,9.4273,137.4164,225.3531,4.186683,0.1150533,0.29329106,27.8897,09/03.0/2025,2000,g 11.0,4.0
# From MPEC 2023-J29
137P/Shoemaker-Levy,e,4.8596,232.9278,141.2139,4.523918,0.1024311,0.57287620,251.3768,09/03.0/2025,2000,g 11.0,4.0
# From MPC186636
138P/Shoemaker-Levy,e,10.0983,309.2189,95.7475,3.616650,0.1432994,0.53151685,331.0098,09/03.0/2025,2000,g 15.0,6.0
# From MPEC 2020-HN5
139P/Vaisala-Oterma,e,2.3374,242.1781,166.0029,4.513140,0.1027983,0.24827378,289.2811,09/03.0/2025,2000,g  9.5,4.0
# From MPEC 2015-E14
140P/Bowell-Skiff,e,3.6885,343.3666,172.1487,6.414104,0.0606736,0.69505918,225.1015,09/03.0/2025,2000,g 11.5,6.0
# From MPC186636
141P-H/Machholz,e,14.0173,241.8511,153.6194,3.045940,0.1854053,0.73461509,320.9213,09/03.0/2025,2000,g 18.5,4.0
# From MPEC 2015-KD9
141P-A/Machholz,e,13.9419,153.4992,241.9331,3.057105,0.1843905,0.73588689,317.1574,09/03.0/2025,2000,g 12.0,12.0
# From MPC 24216
141P-B/Machholz,e,13.9859,153.5754,241.8220,3.055468,0.1845387,0.73564809,318.5960,09/03.0/2025,2000,g  9.0,4.0
# From MPC 37026
141P-D/Machholz,e,13.8337,153.2247,242.1818,3.065641,0.1836209,0.73683040,312.6998,09/03.0/2025,2000,g  9.0,4.0
# From MPEC 2015-R12
141P-E/Machholz,e,12.8152,246.1856,149.2667,3.012914,0.1884620,0.75023267,359.9529,09/19.0/1994,2000,g  9.0,4.0
# From MPEC 2015-R12
141P-F/Machholz,e,12.7898,246.1881,149.2374,3.010224,0.1887147,0.75000946,359.9630,09/19.0/1994,2000,g  9.0,4.0
# From MPEC 2015-R12
141P-G/Machholz,e,12.8259,246.3146,149.0784,3.005818,0.1891298,0.74964304,359.9802,09/19.0/1994,2000,g  9.0,4.0
# From MPEC 2025-OF9
141P-H/Machholz,e,14.0173,241.8511,153.6194,3.045940,0.1854053,0.73461509,320.9213,09/03.0/2025,2000,g 18.5,4.0
# From MPEC 2022-SU8
141P-I/Machholz,e,13.9419,153.4542,241.9428,3.047563,0.1852572,0.73511584,318.7585,09/03.0/2025,2000,g 17.5,4.0
# From MPEC 2024-C04
142P/Ge-Wang,e,12.2441,175.9610,174.0568,5.003549,0.0880617,0.49586493,138.7841,09/03.0/2025,2000,g  8.5,6.0
# From MPC182888
143P/Kowal-Mrkos,e,5.4165,242.2912,304.4767,4.770583,0.0945904,0.38067638,314.6111,09/03.0/2025,2000,g 13.5,2.0
# From MPEC 2024-YC7
144P/Kushida,e,3.9317,242.9246,216.3665,3.834096,0.1312833,0.63496785,76.9531,09/03.0/2025,2000,g  8.5,8.0
# From MPC186636
145P/Shoemaker-Levy,e,11.2780,26.7680,10.4129,4.129920,0.1174334,0.54242330,342.2766,09/03.0/2025,2000,g 13.5,4.0
# From MPC184418
